{"type": "FeatureCollection", "features": [{"type": "Feature", "properties": {"norad_id": 36828, "name": "BEIDOU-2 IGSO-1 (C06)", "group": "beidou", "lat": -8.62636372439527, "lon": 158.38386192118386, "alt_km": 35934.3208385624, "timestamp": "2025-12-10T21:43:22.352921+00:00", "meta": {"OBJECT_NAME": "BEIDOU-2 IGSO-1 (C06)", "OBJECT_ID": "2010-036A", "EPOCH": "2025-12-09T10:39:31.929984", "MEAN_MOTION": 1.00277193, "ECCENTRICITY": 0.0051253, "INCLINATION": 54.2848, "RA_OF_ASC_NODE": 164.6772, "ARG_OF_PERICENTER": 215.9067, "MEAN_ANOMALY": 325.5876, "EPHEMERIS_TYPE": 0, "CLASSIFICATION_TYPE": "U", "NORAD_CAT_ID": 36828, "ELEMENT_SET_NO": 999, "REV_AT_EPOCH": 5619, "BSTAR": 0, "MEAN_MOTION_DOT": -6.8e-07, "MEAN_MOTION_DDOT": 0}, "tle": {"line1": "1 36828U 10036A   25343.44411956 -.00000068  00000+0  00000+0 0  9991", "line2": "2 36828  54.2848 164.6772 0051253 215.9067 325.5876  1.00277193 56196"}}, "geometry": {"type": "Point", "coordinates": [158.38386192118386, -8.62636372439527]}}, {"type": "Feature", "properties": {"norad_id": 37210, "name": "BEIDOU-2 G4 (C04)", "group": "beidou", "lat": 2.2070607979444077, "lon": -154.2681072827196, "alt_km": 35758.87706085867, "timestamp": "2025-12-10T21:43:22.352944+00:00", "meta": {"OBJECT_NAME": "BEIDOU-2 G4 (C04)", "OBJECT_ID": "2010-057A", "EPOCH": "2025-12-10T13:40:51.818016", "MEAN_MOTION": 1.00271324, "ECCENTRICITY": 0.00109766, "INCLINATION": 3.1794, "RA_OF_ASC_NODE": 69.9408, "ARG_OF_PERICENTER": 190.1899, "MEAN_ANOMALY": 184.702, "EPHEMERIS_TYPE": 0, "CLASSIFICATION_TYPE": "U", "NORAD_CAT_ID": 37210, "ELEMENT_SET_NO": 999, "REV_AT_EPOCH": 5540, "BSTAR": 0, "MEAN_MOTION_DOT": -1.08e-06, "MEAN_MOTION_DDOT": 0}, "tle": {"line1": "1 37210U 10057A   25344.57004419 -.00000108  00000+0  00000+0 0  9992", "line2": "2 37210   3.1794  69.9408 0010976 190.1899 184.7020  1.00271324 55401"}}, "geometry": {"type": "Point", "coordinates": [-154.2681072827196, 2.2070607979444077]}}, {"type": "Feature", "properties": {"norad_id": 37256, "name": "BEIDOU-2 IGSO-2 (C07)", "group": "beidou", "lat": -39.668083098209834, "lon": 142.6238387979675, "alt_km": 35596.375081405036, "timestamp": "2025-12-10T21:43:22.352959+00:00", "meta": {"OBJECT_NAME": "BEIDOU-2 IGSO-2 (C07)", "OBJECT_ID": "2010-068A", "EPOCH": "2025-12-03T17:22:36.027840", "MEAN_MOTION": 1.0028872, "ECCENTRICITY": 0.00492449, "INCLINATION": 47.9042, "RA_OF_ASC_NODE": 274.2614, "ARG_OF_PERICENTER": 216.1411, "MEAN_ANOMALY": 310.24, "EPHEMERIS_TYPE": 0, "CLASSIFICATION_TYPE": "U", "NORAD_CAT_ID": 37256, "ELEMENT_SET_NO": 999, "REV_AT_EPOCH": 5483, "BSTAR": 0, "MEAN_MOTION_DOT": -2.25e-06, "MEAN_MOTION_DDOT": 0}, "tle": {"line1": "1 37256U 10068A   25337.72402810 -.00000225  00000+0  00000+0 0  9990", "line2": "2 37256  47.9042 274.2614 0049244 216.1411 310.2400  1.00288720 54834"}}, "geometry": {"type": "Point", "coordinates": [142.6238387979675, -39.668083098209834]}}, {"type": "Feature", "properties": {"norad_id": 37384, "name": "BEIDOU-2 IGSO-3 (C08)", "group": "beidou", "lat": 55.677798550679064, "lon": 171.27738070829946, "alt_km": 35745.05730539522, "timestamp": "2025-12-10T21:43:22.352973+00:00", "meta": {"OBJECT_NAME": "BEIDOU-2 IGSO-3 (C08)", "OBJECT_ID": "2011-013A", "EPOCH": "2025-12-07T14:00:04.361184", "MEAN_MOTION": 1.00271435, "ECCENTRICITY": 0.0035334, "INCLINATION": 62.1366, "RA_OF_ASC_NODE": 41.9657, "ARG_OF_PERICENTER": 187.0632, "MEAN_ANOMALY": 165.2408, "EPHEMERIS_TYPE": 0, "CLASSIFICATION_TYPE": "U", "NORAD_CAT_ID": 37384, "ELEMENT_SET_NO": 999, "REV_AT_EPOCH": 5373, "BSTAR": 0, "MEAN_MOTION_DOT": -1.91e-06, "MEAN_MOTION_DDOT": 0}, "tle": {"line1": "1 37384U 11013A   25341.58338381 -.00000191  00000+0  00000+0 0  9995", "line2": "2 37384  62.1366  41.9657 0035334 187.0632 165.2408  1.00271435 53735"}}, "geometry": {"type": "Point", "coordinates": [171.27738070829946, 55.677798550679064]}}, {"type": "Feature", "properties": {"norad_id": 37763, "name": "BEIDOU-2 IGSO-4 (C09)", "group": "beidou", "lat": -20.64349541055351, "lon": 151.78884121004708, "alt_km": 35929.674555034304, "timestamp": "2025-12-10T21:43:22.352986+00:00", "meta": {"OBJECT_NAME": "BEIDOU-2 IGSO-4 (C09)", "OBJECT_ID": "2011-038A", "EPOCH": "2025-12-10T12:04:03.489024", "MEAN_MOTION": 1.00284678, "ECCENTRICITY": 0.01490344, "INCLINATION": 54.5829, "RA_OF_ASC_NODE": 167.3658, "ARG_OF_PERICENTER": 230.2355, "MEAN_ANOMALY": 317.2212, "EPHEMERIS_TYPE": 0, "CLASSIFICATION_TYPE": "U", "NORAD_CAT_ID": 37763, "ELEMENT_SET_NO": 999, "REV_AT_EPOCH": 5275, "BSTAR": 0, "MEAN_MOTION_DOT": 3.6e-07, "MEAN_MOTION_DDOT": 0}, "tle": {"line1": "1 37763U 11038A   25344.50281816  .00000036  00000+0  00000+0 0  9995", "line2": "2 37763  54.5829 167.3658 0149034 230.2355 317.2212  1.00284678 52751"}}, "geometry": {"type": "Point", "coordinates": [151.78884121004708, -20.64349541055351]}}, {"type": "Feature", "properties": {"norad_id": 37948, "name": "BEIDOU-2 IGSO-5 (C10)", "group": "beidou", "lat": -31.5981039584118, "lon": 127.41577581045856, "alt_km": 35321.29869784779, "timestamp": "2025-12-10T21:43:22.352998+00:00", "meta": {"OBJECT_NAME": "BEIDOU-2 IGSO-5 (C10)", "OBJECT_ID": "2011-073A", "EPOCH": "2025-12-09T19:08:31.399296", "MEAN_MOTION": 1.00291503, "ECCENTRICITY": 0.01103013, "INCLINATION": 48.0257, "RA_OF_ASC_NODE": 273.8934, "ARG_OF_PERICENTER": 222.2261, "MEAN_ANOMALY": 322.5967, "EPHEMERIS_TYPE": 0, "CLASSIFICATION_TYPE": "U", "NORAD_CAT_ID": 37948, "ELEMENT_SET_NO": 999, "REV_AT_EPOCH": 5123, "BSTAR": 0, "MEAN_MOTION_DOT": -2.09e-06, "MEAN_MOTION_DDOT": 0}, "tle": {"line1": "1 37948U 11073A   25343.79758564 -.00000209  00000+0  00000+0 0  9991", "line2": "2 37948  48.0257 273.8934 0110301 222.2261 322.5967  1.00291503 51234"}}, "geometry": {"type": "Point", "coordinates": [127.41577581045856, -31.5981039584118]}}, {"type": "Feature", "properties": {"norad_id": 38091, "name": "BEIDOU-2 G5 (C05)", "group": "beidou", "lat": 1.7430684059541648, "lon": 104.47211325142025, "alt_km": 35836.77249898195, "timestamp": "2025-12-10T21:43:22.353011+00:00", "meta": {"OBJECT_NAME": "BEIDOU-2 G5 (C05)", "OBJECT_ID": "2012-008A", "EPOCH": "2025-12-10T16:02:24.737568", "MEAN_MOTION": 1.0027475, "ECCENTRICITY": 0.00125684, "INCLINATION": 3.1043, "RA_OF_ASC_NODE": 70.7102, "ARG_OF_PERICENTER": 226.6233, "MEAN_ANOMALY": 81.6713, "EPHEMERIS_TYPE": 0, "CLASSIFICATION_TYPE": "U", "NORAD_CAT_ID": 38091, "ELEMENT_SET_NO": 999, "REV_AT_EPOCH": 5047, "BSTAR": 0, "MEAN_MOTION_DOT": 6e-07, "MEAN_MOTION_DDOT": 0}, "tle": {"line1": "1 38091U 12008A   25344.66834187  .00000060  00000+0  00000+0 0  9997", "line2": "2 38091   3.1043  70.7102 0012568 226.6233  81.6713  1.00274750 50475"}}, "geometry": {"type": "Point", "coordinates": [104.47211325142025, 1.7430684059541648]}}, {"type": "Feature", "properties": {"norad_id": 38250, "name": "BEIDOU-2 M3 (C11)", "group": "beidou", "lat": 41.96501504678538, "lon": 93.72807878814183, "alt_km": 21580.84817997049, "timestamp": "2025-12-10T21:43:22.353041+00:00", "meta": {"OBJECT_NAME": "BEIDOU-2 M3 (C11)", "OBJECT_ID": "2012-018A", "EPOCH": "2025-12-09T02:31:53.071968", "MEAN_MOTION": 1.86229533, "ECCENTRICITY": 0.00244707, "INCLINATION": 55.9232, "RA_OF_ASC_NODE": 311.2798, "ARG_OF_PERICENTER": 273.7022, "MEAN_ANOMALY": 86.0063, "EPHEMERIS_TYPE": 0, "CLASSIFICATION_TYPE": "U", "NORAD_CAT_ID": 38250, "ELEMENT_SET_NO": 999, "REV_AT_EPOCH": 9240, "BSTAR": 0, "MEAN_MOTION_DOT": -7.5e-07, "MEAN_MOTION_DDOT": 0}, "tle": {"line1": "1 38250U 12018A   25343.10547537 -.00000075  00000+0  00000+0 0  9990", "line2": "2 38250  55.9232 311.2798 0024470 273.7022  86.0063  1.86229533 92404"}}, "geometry": {"type": "Point", "coordinates": [93.72807878814183, 41.96501504678538]}}, {"type": "Feature", "properties": {"norad_id": 38251, "name": "BEIDOU-2 M4 (C12)", "group": "beidou", "lat": 6.767880647303544, "lon": 125.80920920099715, "alt_km": 21538.95816477952, "timestamp": "2025-12-10T21:43:22.353054+00:00", "meta": {"OBJECT_NAME": "BEIDOU-2 M4 (C12)", "OBJECT_ID": "2012-018B", "EPOCH": "2025-12-09T00:54:02.015712", "MEAN_MOTION": 1.86229239, "ECCENTRICITY": 0.001562, "INCLINATION": 55.8247, "RA_OF_ASC_NODE": 310.5113, "ARG_OF_PERICENTER": 276.8164, "MEAN_ANOMALY": 82.9941, "EPHEMERIS_TYPE": 0, "CLASSIFICATION_TYPE": "U", "NORAD_CAT_ID": 38251, "ELEMENT_SET_NO": 999, "REV_AT_EPOCH": 9240, "BSTAR": 0, "MEAN_MOTION_DOT": -7.4e-07, "MEAN_MOTION_DDOT": 0}, "tle": {"line1": "1 38251U 12018B   25343.03752333 -.00000074  00000+0  00000+0 0  9994", "line2": "2 38251  55.8247 310.5113 0015620 276.8164  82.9941  1.86229239 92404"}}, "geometry": {"type": "Point", "coordinates": [125.80920920099715, 6.767880647303544]}}, {"type": "Feature", "properties": {"norad_id": 38775, "name": "BEIDOU-2 M6 (C14)", "group": "beidou", "lat": 4.946208647242314, "lon": 72.43337269833987, "alt_km": 21498.813719993334, "timestamp": "2025-12-10T21:43:22.353066+00:00", "meta": {"OBJECT_NAME": "BEIDOU-2 M6 (C14)", "OBJECT_ID": "2012-050B", "EPOCH": "2025-12-09T06:50:59.454240", "MEAN_MOTION": 1.86230769, "ECCENTRICITY": 0.00110803, "INCLINATION": 56.3755, "RA_OF_ASC_NODE": 69.1821, "ARG_OF_PERICENTER": 345.0946, "MEAN_ANOMALY": 14.8952, "EPHEMERIS_TYPE": 0, "CLASSIFICATION_TYPE": "U", "NORAD_CAT_ID": 38775, "ELEMENT_SET_NO": 999, "REV_AT_EPOCH": 8977, "BSTAR": 0, "MEAN_MOTION_DOT": -4.8e-07, "MEAN_MOTION_DDOT": 0}, "tle": {"line1": "1 38775U 12050B   25343.28541035 -.00000048  00000+0  00000+0 0  9994", "line2": "2 38775  56.3755  69.1821 0011080 345.0946  14.8952  1.86230769 89773"}}, "geometry": {"type": "Point", "coordinates": [72.43337269833987, 4.946208647242314]}}]}